#dP2023  4 12  0  0  0.00000000     288   u+U IGS20 FIT  GFZ                    
## 2257 259200.00000000   300.00000000 60046 0.0000000000000                    
+  127   C01C02C03C04C05C06C07C08C09C10C11C12C13C14C16C19C20                    
+        C21C22C23C24C25C26C27C28C29C30C32C33C34C35C36C37C38                    
+        C39C40C41C42C43C44C45C46C59C60E01E02E03E04E05E07E08                    
+        E09E10E11E12E13E14E15E18E19E21E24E25E26E27E30E31E33                    
+        E34E36G01G02G03G04G05G06G07G08G09G10G11G12G13G14G15                    
+        G16G17G18G19G20G21G22G23G24G25G26G27G28G29G30G31G32                    
+        J02J03J04J07R01R02R03R04R05R07R08R09R11R12R13R14R15                    
+        R16R17R18R19R20R21R22R24 00 00 00 00 00 00 00 00 00                    
++        10 10 10 10 10 10 10 10 10 10  8 10  9 10 10  5  5                    
++         6  6  9 10  6  5  7  7  8  5  5  6  5  6 10  8 10                    
++         8  9  6  5  6  6  7  6 10 10  5  6  6  5  5  6  6                    
++         8  8  6  5  9  6  7  6  6  5  6  6  8  5  5  6  7                    
++         7 10  6  6  5  5  8  7  6  5  6  5  6  7  6  6  7                    
++         8  7  6  8  8  6  5  6  5  5  5  5 10  5  5  6  5                    
++         8 10  8 10  8  7  6  6  7  6  6  6  6  6  9  6  7                    
++         6  8  7  9  8  5  6  5  0  0  0  0  0  0  0  0  0                    
%c M  cc GPS ccc cccc cccc cccc cccc ccccc ccccc ccccc ccccc                    
%c cc cc ccc ccc cccc cccc cccc cccc ccccc ccccc ccccc ccccc                    
%f  1.2500000  1.025000000  0.00000000000  0.000000000000000                    
%f  0.0000000  0.000000000  0.00000000000  0.000000000000000                    
%i    0    0    0    0      0      0      0      0         0                    
%i    0    0    0    0      0      0      0      0         0                    
/* PCV:IGSM3_2194 OL/AL:FES2014b NONE     YN CLK:CoN ORB:CoN                    
/*     GeoForschungsZentrum Potsdam                                             
/*                                                                              
/*                                                                              
*  2023  4 12 15 35  0.00000000                                                 
PC01 -34317.745575  24453.458097    787.741082    898.463786                    
PC02   4367.863959  41950.157616   1179.249451   -858.748339                    
PC03 -14848.702518  39481.633160    978.904639    534.845711                    
PC04 -39609.841797  14449.134593    -38.548025    157.400465                    
PC05  21670.079033  36194.356005    934.349168   -452.215782                    
PC06 -10430.581204  40677.501906   5211.313849   -197.158347                    
PC07  -6115.990736  27500.591026 -31302.471733    138.789327                    
PC08 -18896.150879  25077.673623  28050.392098    506.027542                    
PC09  -5802.415406  41833.600741  -4002.570926    775.169564                    
PC10   2482.228886  30167.859743 -28891.273166    -31.559330                    
PC11 -14720.750587  -8200.632294 -22185.023438    296.597444                    
PC12  -7665.576986 -24570.393872 -10752.343926    567.167314                    
PC13 -11095.039357  26088.885314  31278.022352    251.226517                    
PC14 -25809.804674  -9418.696231   5096.760694    114.118647                    
PC16 -12148.344802  39696.367904   8453.356442    111.437430                    
PC19  24245.054000   2124.716992 -13598.367169   -900.699202                    
PC20  23770.861241  14349.093277   2619.152825    629.440318                    
PC21  -8881.890622 -18880.292011 -18522.208440   -909.827919                    
PC22  10726.319679 -11967.747792 -22804.667431   -539.297862                    
PC23 -19818.720892  18417.812282  -6832.604458   -904.439020                    
PC24 -15022.920511  -8992.069638  21711.053513   -179.838184                    
PC25 -24813.740749   8173.663680   9770.956621    105.339371                    
PC26   1749.761848 -18870.264558  20478.805864   -105.272034                    
PC27   2764.877707  27641.910779   2723.596644    124.592582                    
PC28  -8482.027603  23053.946726 -13243.193021     91.723420                    
PC29  15615.709178  -4143.499179  22743.515244    106.209670                    
PC30  13373.142343  17263.899732  17378.043355      0.451521                    
PC32   8890.125110  18815.997528  18605.984841   -580.360323                    
PC33 -24329.054773  -2018.221805  13550.496614   -873.278779                    
PC34 -13863.826113 -16000.888341 -18181.695853    147.412684                    
PC35   8214.967384 -22718.349149  13919.468365    647.369221                    
PC36  24924.063800  -7042.244630 -10378.628174   -505.366857                    
PC37  -3469.989153  19197.976301 -19936.492429   -790.669609                    
PC38 -25403.624572  26404.449836  20783.213671     71.312302                    
PC39 -13173.086553  37549.586224  14322.646222     -2.506827                    
PC40  -9106.408627  21991.331939 -34794.764623    -20.142662                    
PC41 -11390.180734  11644.235091  22719.015700   -841.703093                    
PC42 -23272.284287 -14935.840990  -3813.569052   -740.439652                    
PC43 -15860.928785   3185.375746 -22752.293675     16.369936                    
PC44  -3714.716019 -27519.335087  -2577.588079     73.776921                    
PC45  19576.219290 -18526.412383   7271.727843    -84.171758                    
PC46  16353.010148   7617.621428 -21304.663417    -46.495934                    
PC59 -32362.536912  27032.788701    874.141374     -0.552124                    
PC60   7268.238456  41523.688434    810.228670     -0.663534                    
PE01 -29595.019276    339.332708    -30.837093     -2.391648                    
PE02  29599.334044   -643.429461    473.748049     31.937317                    
PE03  19845.373836   3442.103700 -21682.579190   -668.510456                    
PE04  -9276.813266  16068.410735  23076.376930    -99.048635                    
PE05  18994.078681  21431.879903  -7475.822790    -77.441910                    
PE07  -6903.400548 -26582.985909 -11039.183956    -37.064132                    
PE08   9294.606513 -15814.959680 -23225.733327    -66.251386                    
PE09   6836.331545  26499.395737  11270.583533   -902.404306                    
PE10 -11889.878015  26832.676912   3858.825466   -525.966823                    
PE11  -4204.145046  25903.623561  13703.240310   1582.236470                    
PE12 -17155.647170  23474.483763  -5629.625493   -495.909528                    
PE13   4808.068449 -26117.214290 -13059.081912    -18.479666                    
PE14  -5475.473097 -27604.401240   7908.957217    195.160652                    
PE15  17227.571878 -23307.107828   5982.045015    -14.088600                    
PE18  -5419.367386  21663.910184 -16391.031766   -173.741575                    
PE19 -20379.026505  -6361.687811  20516.292791  -2782.502674                    
PE21 -22347.919058 -10762.304882  16144.288678   -522.970051                    
PE24    849.817992  16787.084061 -24383.698770    -40.384702                    
PE25  22093.549749  10934.527973 -16390.672839   -603.140864                    
PE26 -10925.683096 -12944.342904 -24271.826845     73.185984                    
PE27  -1781.833782 -16691.619757  24376.758706    -23.379617                    
PE30  20182.504471 -12419.550231  17732.133852    -87.277090                    
PE31 -19598.559230  12726.712258 -18163.763745   -521.103805                    
PE33 -19380.378472   6779.251083 -21327.007652   -446.513397                    
PE34  19393.583666  -6963.893219  21242.199044    -39.850301                    
PE36  10252.755818  13617.331049  24201.616030    -40.312984                    
PG01  14105.957363 -22271.883931   -332.419260    193.931201                    
PG02  -5849.987828  24726.960438   8862.429935   -606.702003                    
PG03  12699.007343 -12786.900492 -19595.260349   -330.775295                    
PG04   4017.294246 -19493.183995 -17520.079923     15.142924                    
PG05 -25010.446701   5337.967408   7226.300109   -123.131834                    
PG06 -11609.007937  -8849.760655 -22122.463156    586.562151                    
PG07   3201.866030 -22850.376391  13157.632710    202.930844                    
PG08  12613.304196  -8563.020740  21666.462868   -117.409609                    
PG09  -5710.597623 -24068.946724  -9680.746090   -181.494901                    
PG10  18226.268984  11342.182592  16017.932244    -32.528788                    
PG11 -18802.265267   5258.781545 -17984.028528   -160.189845                    
PG12 -15717.432787  11228.743847 -18470.342787   -363.060975                    
PG13 -15582.829856    100.371814  21360.289507    504.701072                    
PG14 -15236.957263 -13360.489686  17249.581264     23.001091                    
PG15 -11495.330263  10672.562786  20968.142536     29.990937                    
PG16  26344.507027    -44.046010   4635.980268   -509.330331                    
PG17 -13143.496108 -22636.407350  -3732.337234    710.232570                    
PG18  -1081.849056  21317.957024  15710.099589   -221.067433                    
PG19 -16370.975681 -16675.324284 -13119.345660    302.705447                    
PG20 -26247.740310   1446.968384  -2921.892110    439.450882                    
PG21  16753.679328 -17772.374534   9861.565193    154.241586                    
PG22  17070.513771  13788.582118 -14631.213638    462.841406                    
PG23   5967.888557  14589.783845  21404.514095     16.376515                    
PG24 -14595.897209  21361.656871   4564.809643   -149.006381                    
PG25  -3711.049603  15311.958705 -21673.785570    435.059598                    
PG26  24924.979899   5233.967982  -8243.925479    241.776663                    
PG27  17370.211032   3756.104064  19622.895342     60.517199                    
PG28  11148.633770  10802.647909 -21578.491138     63.671507                    
PG29    731.421696  23206.189582 -12872.050224   -595.203860                    
PG30  -6903.947967 -16340.101922  19796.731702   -522.709466                    
PG31  15946.182020   3100.289655 -21261.402003   -213.804012                    
PG32  16055.844346  20312.474467  -6200.801187   -449.594887                    
PJ02 -32282.623105  16330.911640 -17043.951656     -1.503581                    
PJ03 -22775.013874  31080.940176 -12515.145967      2.194761                    
PJ04 -27701.743359  25999.482639  24339.577543     94.178410                    
PJ07 -25384.164960  33678.822742     37.799550      0.032979                    
PR01 -21493.197484 -12531.632774   5674.108750     26.528507                    
PR02 -15336.145173     45.963492  20413.732123    -22.965680                    
PR03   -826.820103  12661.199337  22190.142221     75.887634                    
PR04  13791.519381  17946.660447  11808.714303    183.037261                    
PR05  20940.070559  13685.265639  -5029.653191    110.840666                    
PR07    119.835645 -13030.538697 -21872.990643     53.665196                    
PR08 -14043.554153 -17879.810546 -11472.778259    -70.316137                    
PR09  23324.559683 -10222.709846     97.724760    114.320676                    
PR11  -2630.442236 -10724.319155  23000.927388    -34.744812                    
PR12 -19562.792994   -416.994405  16376.058043     26.387766                    
PR13 -23735.144909   9166.993697   1777.558924    -33.915502                    
PR14 -13778.373385  14223.790531 -16080.667083     24.531574                    
PR15   3796.013717  10374.046349 -22976.224269     89.841907                    
PR16  19306.265095    366.447911 -16643.406164     13.430194                    
PR17  -6216.904532  24012.847358  -5877.654677    620.576856                    
PR18   1278.866786  23130.800959  10754.118429     76.166550                    
PR19   7434.163833  11852.780163  21325.710733   -228.801553                    
PR20  11169.978419 -10328.753812  20463.290160    -90.984401                    
PR21   5672.879718 -24521.106011   4203.078259      0.536038                    
PR22  -1114.658401 -22750.627722 -11439.287070     79.013434                    
PR24 -11179.165932  11311.823131 -19927.977048    161.363950                    
EOF                                     
